GLOBALSTAR M023         
1 25621U 99004A   24353.85352477  .00000073  00000+0  98688-3 0  9997
2 25621  52.0099 242.5604 0010870  87.5213 349.0275 12.62490541193049
GLOBALSTAR M040         
1 25622U 99004B   24353.22378339  .00000033  00000+0  76633-3 0  9996
2 25622  51.9910 248.3612 0001482  34.3558 133.0003 12.61995061192409
GLOBALSTAR M036         
1 25623U 99004C   24353.37135701 -.00000016  00000+0  97443-3 0  9991
2 25623  51.9991 356.9083 0011060  66.9816  71.3690 11.86584107157518
GLOBALSTAR M038         
1 25624U 99004D   24353.90576509 -.00000058  00000+0  30503-3 0  9996
2 25624  51.9957 230.7590 0002838  50.2937  36.3154 12.32516180180101
GLOBALSTAR M022         
1 25649U 99012A   24353.18945753 -.00000036  00000+0  61494-3 0  9992
2 25649  52.0057  62.9331 0002829 163.9224 212.2756 12.02493495154609
GLOBALSTAR M041         
1 25650U 99012B   24353.29813807 -.00000008  00000+0  99410-3 0  9998
2 25650  52.0034 298.5769 0002325 336.7605  23.3126 11.96664054156621
GLOBALSTAR M046         
1 25651U 99012C   24353.33609104 -.00000168  00000+0 -87841-3 0  9990
2 25651  52.0077  19.2714 0002104 245.1981 128.4303 12.09403834161781
